NORAD_CAT_ID,OBJECT_NAME,OBJECT_TYPE,EPOCH,MEAN_MOTION,ECCENTRICITY,INCLINATION,RA_OF_ASC_NODE,ARG_OF_PERICENTER,MEAN_ANOMALY,BSTAR,MEAN_MOTION_DOT,MEAN_MOTION_DDOT,TLE_LINE0,TLE_LINE1,TLE_LINE2,SEMIMAJOR_AXIS,PERIOD,APOGEE,PERIGEE,DECAYED
52536.0,STARLINK-3964,PAYLOAD,2023-04-20 08:42:59,15.08842009,0.0001254,53.2152,182.1774,80.5478,279.5656,7.1247e-05,8.46e-06,0.0,0 STARLINK-3964,1 52536U 22051D   23110.36318406  .00000846  00000-0  71247-4 0  9992,2 52536  53.2152 182.1774 0001254  80.5478 279.5656 15.08842009 52278,6917.874,95.437,540.607,538.872,0.0
52536.0,STARLINK-3964,PAYLOAD,2023-04-20 21:26:04,15.08833569,8.91e-05,53.2145,179.7976,98.7631,261.3462,9.1627e-05,1.171e-05,0.0,0 STARLINK-3964,1 52536U 22051D   23110.89310666  .00001171  00000-0  91627-4 0  9996,2 52536  53.2145 179.7976 0000891  98.7631 261.3462 15.08833569 52358,6917.9,95.438,540.381,539.149,0.0
52536.0,STARLINK-3964,PAYLOAD,2023-04-21 03:47:37,15.08830222,0.0001303,53.2149,178.6091,94.0678,266.0463,4.0774e-05,3.61e-06,0.0,0 STARLINK-3964,1 52536U 22051D   23111.15807094  .00000361  00000-0  40774-4 0  9999,2 52536  53.2149 178.6091 0001303  94.0678 266.0463 15.08830222 52465,6917.91,95.438,540.677,538.874,0.0
52536.0,STARLINK-3964,PAYLOAD,2023-04-21 13:19:56,15.08830246,0.0001365,53.2155,176.825,104.3276,255.7868,-8.5324e-05,-1.645e-05,0.0,0 STARLINK-3964,1 52536U 22051D   23111.55551190 -.00001645  00000-0 -85324-4 0  9994,2 52536  53.2155 176.8250 0001365 104.3276 255.7868 15.08830246 52455,6917.91,95.438,540.719,538.831,0.0
52536.0,STARLINK-3964,PAYLOAD,2023-04-22 13:10:42,15.08855444,0.000113,53.2148,172.3638,100.6289,259.483,0.00027206,4.046e-05,0.0,0 STARLINK-3964,1 52536U 22051D   23112.54910166  .00004046  00000-0  27206-3 0  9996,2 52536  53.2148 172.3638 0001130 100.6289 259.4830 15.08855444 52605,6917.833,95.437,540.48,538.916,0.0
52536.0,STARLINK-3964,PAYLOAD,2023-04-23 13:01:30,15.0884211,0.0001107,53.2135,167.902,96.5672,263.5446,0.00016972,2.414e-05,0.0,0 STARLINK-3964,1 52536U 22051D   23113.54271109  .00002414  00000-0  16972-3 0  9999,2 52536  53.2135 167.9020 0001107  96.5672 263.5446 15.08842110 52750,6917.874,95.437,540.505,538.973,0.0
52536.0,STARLINK-3964,PAYLOAD,2023-04-24 20:49:11,15.08834411,0.0001543,53.2137,161.9579,78.397,281.7196,-0.00012826,-2.328e-05,0.0,0 STARLINK-3964,1 52536U 22051D   23114.86749780 -.00002328  00000-0 -12826-3 0  9990,2 52536  53.2137 161.9579 0001543  78.3970 281.7196 15.08834411 53028,6917.897,95.438,540.83,538.695,0.0
52536.0,STARLINK-3964,PAYLOAD,2023-04-25 09:32:17,15.08815863,0.000179,53.2142,159.5728,127.5457,232.5698,-0.0001613,-2.853e-05,0.0,0 STARLINK-3964,1 52536U 22051D   23115.39742709 -.00002853  00000-0 -16130-3 0  9998,2 52536  53.2142 159.5728 0001790 127.5457 232.5698 15.08815863 53104,6917.954,95.439,541.057,538.581,0.0
52536.0,STARLINK-3964,PAYLOAD,2023-04-25 12:43:04,15.08817305,0.0001624,53.2142,158.9787,124.6196,235.4949,-0.00031218,-5.25e-05,0.0,0 STARLINK-3964,1 52536U 22051D   23115.52990918 -.00005250  00000-0 -31218-3 0  9998,2 52536  53.2142 158.9787 0001624 124.6196 235.4949 15.08817305 53054,6917.95,95.439,540.938,538.691,0.0
52536.0,STARLINK-3964,PAYLOAD,2023-04-26 09:23:05,15.08821949,0.0001596,53.2141,155.114,127.7003,232.4134,0.00023645,3.475e-05,0.0,0 STARLINK-3964,1 52536U 22051D   23116.39104085  .00003475  00000-0  23645-3 0  9996,2 52536  53.2141 155.1140 0001596 127.7003 232.4134 15.08821949 53180,6917.936,95.439,540.905,538.696,0.0
52536.0,STARLINK-3964,PAYLOAD,2023-04-26 18:55:27,15.08782662,0.0001671,53.2141,153.331,130.1906,229.9233,0.0016779,0.00026475,0.0,0 STARLINK-3964,1 52536U 22051D   23116.78850817  .00026475  00000-0  16779-2 0  9994,2 52536  53.2141 153.3310 0001671 130.1906 229.9233 15.08782662 53249,6918.056,95.441,541.077,538.765,0.0
52536.0,STARLINK-3964,PAYLOAD,2023-04-27 09:13:52,15.08842757,0.0001318,53.2144,150.6543,110.4412,249.6721,0.00045699,6.993e-05,0.0,0 STARLINK-3964,1 52536U 22051D   23117.38464118  .00006993  00000-0  45699-3 0  9993,2 52536  53.2144 150.6543 0001318 110.4412 249.6721 15.08842757 53334,6917.872,95.437,540.649,538.825,0.0
52536.0,STARLINK-3964,PAYLOAD,2023-04-27 14:00:02,15.08850432,0.0001336,53.2145,149.7621,110.5381,249.5754,0.00050533,7.766e-05,0.0,0 STARLINK-3964,1 52536U 22051D   23117.58335880  .00007766  00000-0  50533-3 0  9990,2 52536  53.2145 149.7621 0001336 110.5381 249.5754 15.08850432 53432,6917.849,95.437,540.638,538.789,0.0
52536.0,STARLINK-3964,PAYLOAD,2023-04-28 05:53:53,15.08849172,0.0001423,53.2146,146.7885,114.0322,246.082,0.00019087,2.752e-05,0.0,0 STARLINK-3964,1 52536U 22051D   23118.24575587  .00002752  00000-0  19087-3 0  9993,2 52536  53.2146 146.7885 0001423 114.0322 246.0820 15.08849172 53539,6917.852,95.437,540.702,538.733,0.0
52536.0,STARLINK-3964,PAYLOAD,2023-04-28 12:15:25,15.08851681,0.0001335,53.2148,145.5995,108.8443,251.2694,0.00022219,3.251e-05,0.0,0 STARLINK-3964,1 52536U 22051D   23118.51071381  .00003251  00000-0  22219-3 0  9992,2 52536  53.2148 145.5995 0001335 108.8443 251.2694 15.08851681 53509,6917.845,95.437,540.633,538.786,0.0
52536.0,STARLINK-3964,PAYLOAD,2023-04-29 00:58:30,15.08840971,0.0001112,53.2158,143.221,115.7541,244.3566,3.5218e-05,2.73e-06,0.0,0 STARLINK-3964,1 52536U 22051D   23119.04063649  .00000273  00000-0  35218-4 0  9994,2 52536  53.2158 143.2210 0001112 115.7541 244.3566 15.08840971 53651,6917.877,95.437,540.512,538.973,0.0
52536.0,STARLINK-3964,PAYLOAD,2023-04-29 10:30:50,15.08840251,0.0001358,53.2162,141.4365,103.8729,256.2414,-2.9265e-05,-7.54e-06,0.0,0 STARLINK-3964,1 52536U 22051D   23119.43808218 -.00000754  00000-0 -29265-4 0  9997,2 52536  53.2162 141.4365 0001358 103.8729 256.2414 15.08840251 53649,6917.88,95.438,540.684,538.805,0.0
52536.0,STARLINK-3964,PAYLOAD,2023-04-30 08:46:13,15.08843298,0.0001296,53.216,137.2728,100.4738,259.6401,2.3045e-05,7.9e-07,0.0,0 STARLINK-3964,1 52536U 22051D   23120.36543728  .00000079  00000-0  23045-4 0  9991,2 52536  53.2160 137.2728 0001296 100.4738 259.6401 15.08843298 53789,6917.87,95.437,540.632,538.839,0.0
52536.0,STARLINK-3964,PAYLOAD,2023-04-30 13:32:23,15.08844242,0.000128,53.2156,136.3804,99.4729,260.6408,3.0209e-05,1.93e-06,0.0,0 STARLINK-3964,1 52536U 22051D   23120.56415606  .00000193  00000-0  30209-4 0  9993,2 52536  53.2156 136.3804 0001280  99.4729 260.6408 15.08844242 53889,6917.867,95.437,540.618,538.847,0.0
52536.0,STARLINK-3964,PAYLOAD,2023-05-01 05:26:15,15.08831725,0.0001297,53.2155,133.4066,98.4322,261.6817,3.6519e-05,2.93e-06,0.0,0 STARLINK-3964,1 52536U 22051D   23121.22656564  .00000293  00000-0  36519-4 0  9998,2 52536  53.2155 133.4066 0001297  98.4322 261.6817 15.08831725 53980,6917.906,95.438,540.668,538.873,0.0
52536.0,STARLINK-3964,PAYLOAD,2023-05-01 10:12:24,15.08834385,0.0001265,53.2157,132.5145,94.8256,265.288,4.1662e-05,3.75e-06,0.0,0 STARLINK-3964,1 52536U 22051D   23121.42528480  .00000375  00000-0  41662-4 0  9991,2 52536  53.2157 132.5145 0001265  94.8256 265.2880 15.08834385 53942,6917.898,95.438,540.638,538.887,0.0
52536.0,STARLINK-3964,PAYLOAD,2023-05-02 06:52:24,15.08842533,0.0001329,53.2159,128.6497,82.2379,277.8764,7.2141e-05,8.6e-06,0.0,0 STARLINK-3964,1 52536U 22051D   23122.28640032  .00000860  00000-0  72141-4 0  9999,2 52536  53.2159 128.6497 0001329  82.2379 277.8764 15.08842533 54145,6917.873,95.437,540.657,538.818,0.0
52536.0,STARLINK-3964,PAYLOAD,2023-05-02 11:38:34,15.08844853,0.0001312,53.2157,127.7572,82.6655,277.4486,8.6712e-05,1.093e-05,0.0,0 STARLINK-3964,1 52536U 22051D   23122.48511800  .00001093  00000-0  86712-4 0  9999,2 52536  53.2157 127.7572 0001312  82.6655 277.4486 15.08844853 54100,6917.866,95.437,540.638,538.823,0.0
52536.0,STARLINK-3964,PAYLOAD,2023-05-03 11:29:21,15.08844393,0.0001251,53.2159,123.2959,89.7887,270.3249,0.00011038,1.469e-05,0.0,0 STARLINK-3964,1 52536U 22051D   23123.47871622  .00001469  00000-0  11038-3 0  9995,2 52536  53.2159 123.2959 0001251  89.7887 270.3249 15.08844393 54321,6917.867,95.437,540.597,538.867,0.0
52536.0,STARLINK-3964,PAYLOAD,2023-05-04 03:23:13,15.08834594,0.0001343,53.2162,120.3216,91.9262,268.1884,-5.0783e-05,-1.096e-05,0.0,0 STARLINK-3964,1 52536U 22051D   23124.14112737 -.00001096  00000-0 -50783-4 0  9994,2 52536  53.2162 120.3216 0001343  91.9262 268.1884 15.08834594 54426,6917.897,95.438,540.691,538.833,0.0
52536.0,STARLINK-3964,PAYLOAD,2023-05-04 09:44:46,15.08833017,0.0001294,53.2164,119.1323,90.691,269.423,-6.6821e-05,-1.351e-05,0.0,0 STARLINK-3964,1 52536U 22051D   23124.40608934 -.00001351  00000-0 -66821-4 0  9996,2 52536  53.2164 119.1323 0001294  90.6910 269.4230 15.08833017 54398,6917.902,95.438,540.662,538.872,0.0
52536.0,STARLINK-3964,PAYLOAD,2023-05-05 08:00:09,15.08842779,0.0001208,53.2161,114.9694,89.0051,271.108,2.223e-05,6.6e-07,0.0,0 STARLINK-3964,1 52536U 22051D   23125.33344128  .00000066  00000-0  22230-4 0  9997,2 52536  53.2161 114.9694 0001208  89.0051 271.1080 15.08842779 54604,6917.872,95.437,540.573,538.901,0.0
52536.0,STARLINK-3964,PAYLOAD,2023-05-05 15:57:05,15.08839965,0.0001206,53.2162,113.4826,88.4113,271.7017,1.9476e-06,-2.57e-06,0.0,0 STARLINK-3964,1 52536U 22051D   23125.66464367 -.00000257  00000-0  19476-5 0  9993,2 52536  53.2162 113.4826 0001206  88.4113 271.7017 15.08839965 54582,6917.88,95.438,540.58,538.911,0.0
52536.0,STARLINK-3964,PAYLOAD,2023-05-06 09:26:19,15.08841561,0.0001121,53.2155,110.212,93.3217,266.7903,0.00016074,2.271e-05,0.0,0 STARLINK-3964,1 52536U 22051D   23126.39328062  .00002271  00000-0  16074-3 0  9991,2 52536  53.2155 110.2120 0001121  93.3217 266.7903 15.08841561 54697,6917.876,95.437,540.516,538.965,0.0
52536.0,STARLINK-3964,PAYLOAD,2023-05-06 23:44:48,15.08834803,0.0001158,53.2157,107.5354,90.4275,269.685,-1.8475e-05,-5.82e-06,0.0,0 STARLINK-3964,1 52536U 22051D   23126.98945140 -.00000582  00000-0 -18475-4 0  9991,2 52536  53.2157 107.5354 0001158  90.4275 269.6850 15.08834803 54851,6917.896,95.438,540.562,538.96,0.0
